     2.100          NAVIGATION                              RINEX VERSION / TYPE
fic2rin                                 01/15/2016 00:05:01 PGM / RUN BY / DATE
                                                            END OF HEADER
21 16  1 14  1 59 44.0 -.505077186972D-03 -.204636307899D-11  .000000000000D+00
     .000000000000D+00 -.117125000000D+03  .480912889095D-08  .282359496446D+01
    -.609830021858D-05  .229450365296D-01  .842846930027D-05  .515369612503D+04
     .352784000000D+06  .182539224625D-06  .191108679255D+00 -.227242708206D-06
     .935809225330D+00  .199718750000D+03 -.184367790031D+01 -.789925760721D-08
    -.277868717205D-09  .100000000000D+01  .187900000000D+04  .000000000000D+00
     .240000000000D+01  .000000000000D+00 -.116415321827D-07  .000000000000D+00
     .349206000000D+06  .400000000000D+01
16 16  1 14  3 59 44.0 -.485545024276D-04  .329691829393D-11  .000000000000D+00
     .100000000000D+01  .762500000000D+02  .380873007747D-08  .241274144537D+01
     .397674739361D-05  .839977187570D-02  .899098813534D-05  .515369604874D+04
     .359984000000D+06 -.217929482460D-06 -.181136884543D+01 -.298023223877D-07
     .990653390679D+00  .223906250000D+03  .315482962206D+00 -.770817821942D-08
     .270011247052D-09  .100000000000D+01  .187900000000D+04  .000000000000D+00
     .240000000000D+01  .000000000000D+00 -.102445483208D-07  .100000000000D+01
     .352806000000D+06  .400000000000D+01
21 16  1 14  3 59 44.0 -.505091622472D-03 -.204636307899D-11  .000000000000D+00
     .200000000000D+01 -.116343750000D+03  .481555773017D-08 -.240944106707D+01
    -.605918467045D-05  .229465503944D-01  .761263072491D-05  .515369322014D+04
     .359984000000D+06  .270083546638D-06  .191051012487D+00 -.782310962677D-07
     .935807687804D+00  .211312500000D+03 -.184365674213D+01 -.792461580634D-08
    -.155006456641D-09  .100000000000D+01  .187900000000D+04  .000000000000D+00
     .240000000000D+01  .000000000000D+00 -.116415321827D-07  .200000000000D+01
     .352806000000D+06  .400000000000D+01
 1 16  1 14  4  0  0.0  .908691436052D-05  .909494701773D-12  .000000000000D+00
     .780000000000D+02 -.970000000000D+02  .440089760076D-08 -.727404354443D+00
    -.516325235367D-05  .494777678978D-02  .938959419727D-05  .515365806198D+04
     .360000000000D+06  .763684511185D-07  .220703934782D+00  .800937414169D-07
     .963937346648D+00  .200031250000D+03  .481860190634D+00 -.807283626603D-08
    -.342157109360D-09  .100000000000D+01  .187900000000D+04  .000000000000D+00
     .240000000000D+01  .000000000000D+00  .512227416039D-08  .780000000000D+02
     .352806000000D+06  .400000000000D+01
 2 16  1 14  4  0  0.0  .599134713411D-03  .341060513165D-12  .000000000000D+00
     .610000000000D+02 -.100500000000D+03  .510664128354D-08 -.201338306549D+00
    -.517442822456D-05  .152706536464D-01  .835582613945D-05  .515370259476D+04
     .360000000000D+06  .353902578354D-07  .178113991963D+00  .247731804848D-06
     .942656180797D+00  .212031250000D+03 -.218683399729D+01 -.868393314924D-08
    -.344657213499D-09  .100000000000D+01  .187900000000D+04  .000000000000D+00
     .240000000000D+01  .000000000000D+00 -.204890966415D-07  .610000000000D+02
     .352806000000D+06  .400000000000D+01
 3 16  1 14  4  0  0.0 -.112443231046D-04 -.500222085975D-11  .000000000000D+00
     .420000000000D+02  .328125000000D+02  .441232664826D-08  .208067134306D+01
     .175647437572D-05  .332558644004D-03  .110454857349D-04  .515378886032D+04
     .360000000000D+06 -.875443220139D-07  .126153524881D+01 -.484287738800D-07
     .958965366471D+00  .167375000000D+03  .291622575959D+01 -.790175771135D-08
     .343942898031D-09  .100000000000D+01  .187900000000D+04  .000000000000D+00
     .240000000000D+01  .000000000000D+00  .186264514923D-08  .420000000000D+02
     .352806000000D+06  .400000000000D+01
 5 16  1 14  4  0  0.0 -.155606307089D-03  .352429196937D-11  .000000000000D+00
     .840000000000D+02  .226250000000D+02  .473448292450D-08  .222883900549D+01
     .117905437946D-05  .457099615596D-02  .119842588902D-04  .515371684837D+04
     .360000000000D+06 -.353902578354D-07  .125142220145D+01  .745058059692D-08
     .946094782908D+00  .141187500000D+03  .487383554876D+00 -.808640825993D-08
     .382515933324D-09  .100000000000D+01  .187900000000D+04  .000000000000D+00
     .240000000000D+01  .000000000000D+00 -.107102096081D-07  .840000000000D+02
     .352806000000D+06  .400000000000D+01
 6 16  1 14  4  0  0.0  .128774438053D-03  .625277607469D-11  .000000000000D+00
     .600000000000D+02 -.100937500000D+03  .439554023475D-08  .724868558576D+00
    -.521168112755D-05  .251548131928D-03  .932067632675D-05  .515362118149D+04
     .360000000000D+06  .111758708954D-07  .212254039496D+00  .614672899246D-07
     .963790007391D+00  .202125000000D+03 -.252578331973D+01 -.807605068564D-08
    -.358943522867D-09  .100000000000D+01  .187900000000D+04  .000000000000D+00
     .240000000000D+01  .000000000000D+00  .419095158577D-08  .600000000000D+02
     .352806000000D+06  .400000000000D+01
 7 16  1 14  4  0  0.0  .473835505545D-03 -.147792889038D-11  .000000000000D+00
     .770000000000D+02 -.996875000000D+01  .436125309227D-08 -.141668320144D+01
    -.678002834320D-06  .902028684504D-02  .958330929279D-05  .515367964363D+04
     .360000000000D+06  .128522515297D-06 -.290321806257D+01 -.335276126862D-07
     .968209026478D+00  .195625000000D+03 -.267811757620D+01 -.790282918456D-08
    -.325727853587D-09  .100000000000D+01  .187900000000D+04  .000000000000D+00
     .485000000000D+01  .000000000000D+00 -.111758708954D-07  .770000000000D+02
     .352806000000D+06  .400000000000D+01
 8 16  1 14  4  0  0.0 -.199489295483D-04 -.147792889038D-11  .000000000000D+00
     .117000000000D+03 -.421875000000D+01  .490484716371D-08  .268217886061D+01
    -.558793544769D-07  .173000479117D-02  .227428972721D-05  .515363198853D+04
     .360000000000D+06  .102445483208D-06 -.838338124354D+00 -.409781932831D-07
     .961770898098D+00  .332437500000D+03 -.148452248565D+01 -.853106963901D-08
    -.821462788651D-11  .100000000000D+01  .187900000000D+04  .000000000000D+00
     .240000000000D+01  .000000000000D+00  .465661287308D-08  .117000000000D+03
     .352806000000D+06  .400000000000D+01
 9 16  1 14  4  0  0.0  .494648702443D-04  .784439180279D-11  .000000000000D+00
     .750000000000D+02  .207500000000D+02  .502628079334D-08  .139424252380D+01
     .112690031528D-05  .591831747442D-03  .482238829136D-05  .515364964867D+04
     .360000000000D+06  .335276126862D-07  .230267822729D+01 -.167638063431D-07
     .955587302835D+00  .283468750000D+03  .190506178053D+01 -.843177978890D-08
     .928610108910D-10  .100000000000D+01  .187900000000D+04  .000000000000D+00
     .340000000000D+01  .000000000000D+00  .139698386192D-08  .750000000000D+02
     .352806000000D+06  .400000000000D+01
10 16  1 14  4  0  0.0  .494509004056D-04  .113686837722D-12  .000000000000D+00
     .130000000000D+02  .191250000000D+02  .437446792843D-08 -.278666968037D+01
     .106729567051D-05  .102652737405D-02  .113248825073D-04  .515368767929D+04
     .360000000000D+06  .428408384323D-07  .125741406229D+01  .000000000000D+00
     .959235718121D+00  .162531250000D+03 -.295329130535D+01 -.787104214621D-08
     .430732227440D-09  .100000000000D+01  .187900000000D+04  .000000000000D+00
     .240000000000D+01  .000000000000D+00  .232830643654D-08  .130000000000D+02
     .352806000000D+06  .400000000000D+01
11 16  1 14  4  0  0.0 -.627097208053D-03 -.204636307899D-11  .000000000000D+00
     .136000000000D+03 -.964687500000D+02  .626168939593D-08 -.129925902139D+01
    -.478699803352D-05  .162257476477D-01  .541284680367D-05  .515364689827D+04
     .360000000000D+06 -.156462192535D-06 -.146555430153D+00  .394880771637D-06
     .895661210239D+00  .237906250000D+03  .149532612396D+01 -.915680998932D-08
    -.350728894981D-09  .100000000000D+01  .187900000000D+04  .000000000000D+00
     .240000000000D+01  .000000000000D+00 -.121071934700D-07  .136000000000D+03
     .352806000000D+06  .400000000000D+01
12 16  1 14  4  0  0.0  .360784120858D-03  .272848410532D-11  .000000000000D+00
     .104000000000D+03  .737812500000D+02  .383873132714D-08 -.178546671928D+01
     .385940074921D-05  .571599556133D-02  .100824981928D-04  .515355110168D+04
     .360000000000D+06  .949949026108D-07 -.183012349178D+01 -.502914190292D-07
     .990140939253D+00  .201500000000D+03  .640962640518D+00 -.773175062988D-08
     .358229207399D-09  .100000000000D+01  .187900000000D+04  .000000000000D+00
     .240000000000D+01  .000000000000D+00 -.121071934700D-07  .104000000000D+03
     .352806000000D+06  .400000000000D+01
13 16  1 14  4  0  0.0 -.178295187652D-03 -.261479726760D-11  .000000000000D+00
     .600000000000D+02  .154375000000D+02  .472019661514D-08 -.466892664685D+00
     .685453414917D-06  .467303232290D-02  .517256557941D-05  .515367627525D+04
     .360000000000D+06 -.596046447754D-07  .242134725700D+01 -.465661287308D-07
     .972189633886D+00  .285875000000D+03  .199315281756D+01 -.830641742420D-08
     .350014579512D-10  .100000000000D+01  .187900000000D+04  .000000000000D+00
     .240000000000D+01  .000000000000D+00 -.111758708954D-07  .600000000000D+02
     .352806000000D+06  .400000000000D+01
14 16  1 14  4  0  0.0  .934256240726D-05 -.227373675443D-11  .000000000000D+00
     .200000000000D+02  .193125000000D+02  .483948729836D-08  .137573339167D+01
     .987201929092D-06  .829590659123D-02  .494904816151D-05  .515370393562D+04
     .360000000000D+06 -.234693288803D-06  .238518271957D+01 -.242143869400D-07
     .964649416172D+00  .283781250000D+03 -.194982537824D+01 -.840034990829D-08
     .582167106740D-10  .100000000000D+01  .187900000000D+04  .000000000000D+00
     .240000000000D+01  .000000000000D+00 -.931322574615D-08  .200000000000D+02
     .352806000000D+06  .400000000000D+01
